     2.11           N: GPS NAV DATA                         RINEX VERSION / TYPE
teqc  2016Apr1      IGN                 20230831 19:30:04UTCPGM / RUN BY / DATE
    18                                                      LEAP SECONDS
    1.5832D-08  2.2352D-08 -1.1921D-07 -1.1921D-07          ION ALPHA
    1.1264D+05  8.1920D+04 -1.9661D+05 -6.5536D+04          ION BETA
    1.862645149231D-09 5.329070518201D-15   503808     2277 DELTA-UTC: A0,A1,T,W
                                                            END OF HEADER
10 23  8 31 12  0  0.0-5.149235948920D-05-1.591615728103D-12 0.000000000000D+00
    4.700000000000D+01 2.212500000000D+01 4.815914887900D-09 1.132721288903D-01
    1.156702637672D-06 8.738883305341D-03 9.816139936447D-07 5.153682256699D+03
    3.888000000000D+05-5.029141902924D-08 1.667836583768D+00 4.470348358154D-08
    9.797125511317D-01 3.668750000000D+02-2.443723798859D+00-8.750364487804D-09
   -8.964659128322D-11 1.000000000000D+00 2.277000000000D+03 0.000000000000D+00
    2.000000000000D+00 0.000000000000D+00 2.328306436539D-09 4.700000000000D+01
    3.816180000000D+05 4.000000000000D+00
27 23  8 31 12  0  0.0-3.155646845698D-05-6.480149750132D-12 0.000000000000D+00
    2.700000000000D+01-5.943750000000D+01 4.415898225600D-09-1.855732020516D+00
   -3.281980752945D-06 1.158608496189D-02 1.080334186554D-05 5.153667669296D+03
    3.888000000000D+05 1.192092895508D-07-4.295338433515D-01-1.806765794754D-07
    9.663269779802D-01 1.699687500000D+02 7.413080726968D-01-7.846755420288D-09
   -4.425184326689D-10 1.000000000000D+00 2.277000000000D+03 0.000000000000D+00
    2.000000000000D+00 0.000000000000D+00 1.396983861923D-09 2.700000000000D+01
    3.816180000000D+05 4.000000000000D+00
16 23  8 31 12  0  0.0-4.608477465808D-04 5.229594535194D-12 0.000000000000D+00
    8.500000000000D+01 1.218750000000D+00 5.016280376784D-09-9.438352079192D-01
    3.930181264877D-07 1.335477491375D-02 3.358349204063D-06 5.153638570786D+03
    3.888000000000D+05 2.253800630569D-07-1.384458747121D+00 2.123415470123D-07
    9.637375573890D-01 3.110625000000D+02 7.931524952651D-01-8.562142361883D-09
    1.082187934614D-10 1.000000000000D+00 2.277000000000D+03 0.000000000000D+00
    2.800000000000D+00 0.000000000000D+00-1.024454832077D-08 8.500000000000D+01
    3.816180000000D+05 4.000000000000D+00
30 23  8 31 12  0  0.0-4.918915219605D-04 3.183231456205D-12 0.000000000000D+00
    6.200000000000D+01 4.590625000000D+01 4.812343310558D-09 1.430113463818D+00
    2.473592758179D-06 6.593834608793D-03 1.208484172821D-05 5.153777328491D+03
    3.888000000000D+05-1.452863216400D-07-2.513334321366D+00-2.607703208923D-08
    9.357329985210D-01 1.357812500000D+02-2.545943536310D+00-8.195341368863D-09
    4.293035965037D-10 1.000000000000D+00 2.277000000000D+03 0.000000000000D+00
    2.000000000000D+00 0.000000000000D+00 3.725290298462D-09 6.200000000000D+01
    3.816180000000D+05 4.000000000000D+00
 7 23  8 31 12  0  0.0 8.036755025387D-05-1.068656274583D-11 0.000000000000D+00
    8.500000000000D+01 2.978125000000D+01 4.489115561111D-09 1.515141339101D+00
    1.532956957817D-06 1.754533813801D-02 1.245923340321D-05 5.153733791351D+03
    3.888000000000D+05-4.004687070847D-07-2.517985956131D+00-1.005828380585D-07
    9.506067016819D-01 1.394062500000D+02-2.174717253954D+00-8.169983169735D-09
    4.360895934534D-10 1.000000000000D+00 2.277000000000D+03 0.000000000000D+00
    2.800000000000D+00 0.000000000000D+00-1.117587089539D-08 8.500000000000D+01
    3.816180000000D+05 4.000000000000D+00
 5 23  8 31 12  0  0.0-1.409123651683D-04-1.477928890381D-12 0.000000000000D+00
    1.900000000000D+01 2.350000000000D+01 4.954849246502D-09-1.557855373947D+00
    1.333653926849D-06 6.062066415325D-03 6.966292858124D-07 5.153717037201D+03
    3.888000000000D+05 5.587935447693D-08 1.622608231620D+00 4.470348358154D-08
    9.670139906428D-01 3.697812500000D+02 1.218460628062D+00-8.647145902621D-09
    2.535819912792D-11 1.000000000000D+00 2.277000000000D+03 0.000000000000D+00
    2.000000000000D+00 0.000000000000D+00-1.117587089539D-08 1.900000000000D+01
    3.845880000000D+05 4.000000000000D+00
25 23  8 31 12  0  0.0 4.652240313590D-04 2.046363078989D-12 0.000000000000D+00
    5.400000000000D+01 1.462500000000D+01 5.326650447800D-09 6.404837645253D-01
    5.681067705154D-07 1.112335640937D-02 3.701075911522D-06 5.153675300598D+03
    3.888000000000D+05-1.732259988785D-07-1.486122186566D+00 2.607703208923D-08
    9.518620653329D-01 3.041562500000D+02 1.052770255764D+00-8.786437418958D-09
    1.150047904111D-10 1.000000000000D+00 2.277000000000D+03 0.000000000000D+00
    2.000000000000D+00 0.000000000000D+00 5.587935447693D-09 5.400000000000D+01
    3.816180000000D+05 4.000000000000D+00
23 23  8 31 12  0  0.0 6.207777187228D-05 5.002220859751D-12 0.000000000000D+00
    9.900000000000D+01 2.828125000000D+01 4.929848205109D-09 1.338720698222D+00
    1.577660441399D-06 3.573587397113D-03 8.847564458847D-07 5.153670913696D+03
    3.888000000000D+05 5.960464477539D-08 1.640145389267D+00-3.725290298462D-09
    9.748499869863D-01 3.683750000000D+02-3.100602282953D+00-8.714648714384D-09
   -4.535903224290D-11 1.000000000000D+00 2.277000000000D+03 0.000000000000D+00
    2.000000000000D+00 0.000000000000D+00-8.381903171539D-09 3.550000000000D+02
    3.816180000000D+05 4.000000000000D+00
29 23  8 31 12  0  0.0-6.086844950914D-04-5.684341886081D-13 0.000000000000D+00
    7.800000000000D+01-4.206250000000D+01 4.183388746526D-09-1.986645168385D+00
   -2.119690179825D-06 2.608981332742D-03 1.279264688492D-05 5.153721776962D+03
    3.888000000000D+05-1.862645149231D-08-3.488858731142D-01-2.980232238770D-08
    9.754006176480D-01 1.463125000000D+02 2.546165127438D+00-7.790324829671D-09
   -5.528801860777D-10 1.000000000000D+00 2.277000000000D+03 0.000000000000D+00
    2.800000000000D+00 0.000000000000D+00-9.778887033463D-09 7.800000000000D+01
    3.815400000000D+05
18 23  8 31 12  0  0.0-4.014843143523D-04-1.296029950026D-11 0.000000000000D+00
    4.100000000000D+01 1.305625000000D+02 4.207318049509D-09 2.351865526879D+00
    6.839632987976D-06 3.668223507702D-03 1.185201108456D-05 5.153668937683D+03
    3.888000000000D+05-6.891787052155D-08 6.400853797482D-01 1.210719347000D-07
    9.743159048540D-01 1.580312500000D+02-3.124989201944D+00-7.943902424756D-09
    4.660908325960D-10 1.000000000000D+00 2.277000000000D+03 0.000000000000D+00
    2.000000000000D+00 0.000000000000D+00-8.381903171539D-09 4.100000000000D+01
    3.815400000000D+05
15 23  8 31 12  0  0.0 7.299240678549D-05 3.637978807092D-12 0.000000000000D+00
    9.000000000000D+01-1.543750000000D+02 5.016994819584D-09-2.919733390958D+00
   -7.860362529755D-06 1.534861314576D-02 8.016824722290D-06 5.153781555176D+03
    3.888000000000D+05 2.458691596985D-07 2.572964547558D+00-3.911554813385D-08
    9.333743196097D-01 2.060000000000D+02 1.236003824635D+00-8.312132315780D-09
   -5.868101560225D-10 1.000000000000D+00 2.277000000000D+03 0.000000000000D+00
    2.000000000000D+00 0.000000000000D+00-1.071020960808D-08 9.000000000000D+01
    3.815400000000D+05
13 23  8 31 12  0  0.0 5.668406374753D-04 4.547473508865D-12 0.000000000000D+00
    9.900000000000D+01-1.262187500000D+02 3.907662769839D-09-2.282170288250D+00
   -6.439164280891D-06 7.423929637298D-03 1.188181340694D-05 5.153680015564D+03
    3.888000000000D+05 4.470348358154D-08 2.855516672280D+00-3.725290298462D-08
    9.706393123034D-01 1.542187500000D+02 9.317153046765D-01-7.727464737066D-09
   -4.143029716675D-10 1.000000000000D+00 2.277000000000D+03 0.000000000000D+00
    2.000000000000D+00 0.000000000000D+00-1.164153218269D-08 9.900000000000D+01
    3.816180000000D+05 4.000000000000D+00
 7 23  8 31 13 59 44.0 8.029025048018D-05-1.068656274583D-11 0.000000000000D+00
    1.300000000000D+01 2.734375000000D+01 4.378753803991D-09 2.563012814720D+00
    1.270323991776D-06 1.754627877381D-02 1.249089837074D-05 5.153731204987D+03
    3.959840000000D+05 8.195638656616D-08-2.518043232299D+00-2.868473529816D-07
    9.506122534560D-01 1.285937500000D+02-2.174778270804D+00-7.686391967354D-09
    4.889489368942D-10 1.000000000000D+00 2.277000000000D+03 0.000000000000D+00
    2.000000000000D+00 0.000000000000D+00-1.117587089539D-08 1.300000000000D+01
    3.888300000000D+05
29 23  8 31 13 59 44.0-6.086914800107D-04-5.684341886081D-13 0.000000000000D+00
    5.000000000000D+00-4.306250000000D+01 4.098742157634D-09-9.391361702197D-01
   -2.607703208923D-06 2.608415787108D-03 1.203455030918D-05 5.153720157623D+03
    3.959840000000D+05 5.774199962616D-08-3.489422788465D-01-1.676380634308D-08
    9.753967453039D-01 1.555625000000D+02 2.546471326432D+00-7.824254483034D-09
   -4.960920927984D-10 1.000000000000D+00 2.277000000000D+03 0.000000000000D+00
    2.000000000000D+00 0.000000000000D+00-9.778887033463D-09 5.000000000000D+00
    3.923880000000D+05 4.000000000000D+00
16 23  8 31 13 59 44.0-4.608100280166D-04 5.229594535194D-12 0.000000000000D+00
    2.000000000000D+00 2.968750000000D+00 4.989850704453D-09 1.040282187243D-01
    2.924352884293D-07 1.335486501921D-02 3.710389137268D-06 5.153638633728D+03
    3.959840000000D+05-9.313225746155D-09-1.384520888955D+00 2.458691596985D-07
    9.637378236401D-01 3.098750000000D+02 7.931614453979D-01-8.668932524407D-09
    8.536069847286D-11 1.000000000000D+00 2.277000000000D+03 0.000000000000D+00
    2.000000000000D+00 0.000000000000D+00-1.024454832077D-08 2.000000000000D+00
    3.888180000000D+05 4.000000000000D+00
